QIANFAN-129             
1 69075U 26104C   26204.25347651  .00000049  00000+0  52229-4 0  9993
2 69075  88.9906 337.7529 0008838 350.5444   9.5543 13.56905006 10043
QIANFAN-130             
1 69076U 26104D   26204.27858090  .00000092  00000+0  12396-3 0  9998
2 69076  88.9908 337.8123 0001772 109.6057 250.5286 13.51012933 10012
QIANFAN-131             
1 69077U 26104E   26204.30067150  .00000035  00000+0  33062-4 0  9993
2 69077  88.9898 337.7749 0008791 353.5462   6.5576 13.54209765 10039
QIANFAN-132             
1 69078U 26104F   26204.28676103  .00000087  00000+0  11608-3 0  9993
2 69078  88.9903 337.8312 0001843 104.7941 255.3414 13.51022185 10001
QIANFAN-133             
1 69079U 26104G   26204.32169353  .00000101  00000+0  12281-3 0  9998
2 69079  88.9905 337.7823 0008912 344.9078  15.1810 13.57839295 10021
QIANFAN-134             
1 69080U 26104H   26203.80643591  .00000049  00000+0  54055-4 0  9990
2 69080  88.9889 337.8470 0011255 340.6341  19.4383 13.54308598  9959
QIANFAN-135             
1 69081U 26104J   26204.30319699  .00000027  00000+0  23119-4 0  9999
2 69081  88.9904 337.7960 0007753 350.7106   9.3900 13.51022827 10028
QIANFAN-136             
1 69082U 26104K   26203.86221625  .00000034  00000+0  33814-4 0  9992
2 69082  88.9896 337.8418 0011110 352.2530   7.8448 13.50949472  9962
QIANFAN-137             
1 69083U 26104L   26204.26574614  .00000084  00000+0  99513-4 0  9990
2 69083  88.9912 337.6810 0009872 356.4324   3.6759 13.57833887 10088
QIANFAN-138             
1 69084U 26104M   26204.25793338  .00000041  00000+0  45300-4 0  9994
2 69084  88.9900 337.8061 0001680  94.2372 265.8971 13.51015831 10011
QIANFAN-139             
1 69085U 26104N   26203.57864654 -.02034099  00000+0 -34420+1 0  9990
2 69085  88.9898 337.8563 0007890 341.3969  18.6892 13.49476581  9937
QIANFAN-140             
1 69086U 26104P   26204.25387606  .00000041  00000+0  44872-4 0  9996
2 69086  88.9903 337.7902 0001661  89.8450 270.2892 13.51024759 10027
QIANFAN-141             
1 69087U 26104Q   26203.90091214  .00000023  00000+0  15407-4 0  9997
2 69087  88.9898 337.8020 0007754 353.3264   6.7785 13.55525402  9996
QIANFAN-142             
1 69088U 26104R   26204.27029054  .00000028  00000+0  24365-4 0  9990
2 69088  88.9898 337.7549 0008318 347.1626  12.9312 13.51023876 10049
QIANFAN-143             
1 69089U 26104S   26203.39114446  .00000093  00000+0  11291-3 0  9998
2 69089  88.9908 337.8481 0009157 344.2099  15.8769 13.57520307  9922
QIANFAN-144             
1 69090U 26104T   26204.27444722  .00000087  00000+0  11601-3 0  9999
2 69090  88.9907 337.7738 0001668 100.2946 259.8393 13.51021327 10036
