{"fetched_at":"2026-07-23T17:55:11.690Z","source":"https://celestrak.org/NORAD/elements/gp.php?GROUP=qianfan&FORMAT=JSON","constellation":"qianfan","records":[{"OBJECT_NAME":"QIANFAN-129","OBJECT_ID":"2026-104C","EPOCH":"2026-07-23T06:05:00.370464","CLASSIFICATION_TYPE":"U","MEAN_MOTION":13.56905006,"ECCENTRICITY":0.00088385,"INCLINATION":88.9906,"RA_OF_ASC_NODE":337.7529,"ARG_OF_PERICENTER":350.5444,"MEAN_ANOMALY":9.5543,"EPHEMERIS_TYPE":0,"NORAD_CAT_ID":69075,"ELEMENT_SET_NO":999,"REV_AT_EPOCH":1004,"BSTAR":0.000052228759,"MEAN_MOTION_DOT":4.9e-7,"MEAN_MOTION_DDOT":0},{"OBJECT_NAME":"QIANFAN-130","OBJECT_ID":"2026-104D","EPOCH":"2026-07-23T06:41:09.389760","CLASSIFICATION_TYPE":"U","MEAN_MOTION":13.51012933,"ECCENTRICITY":0.00017727,"INCLINATION":88.9908,"RA_OF_ASC_NODE":337.8123,"ARG_OF_PERICENTER":109.6057,"MEAN_ANOMALY":250.5286,"EPHEMERIS_TYPE":0,"NORAD_CAT_ID":69076,"ELEMENT_SET_NO":999,"REV_AT_EPOCH":1001,"BSTAR":0.00012396039,"MEAN_MOTION_DOT":9.2e-7,"MEAN_MOTION_DDOT":0},{"OBJECT_NAME":"QIANFAN-131","OBJECT_ID":"2026-104E","EPOCH":"2026-07-23T07:12:58.017600","CLASSIFICATION_TYPE":"U","MEAN_MOTION":13.54209765,"ECCENTRICITY":0.00087914,"INCLINATION":88.9898,"RA_OF_ASC_NODE":337.7749,"ARG_OF_PERICENTER":353.5462,"MEAN_ANOMALY":6.5576,"EPHEMERIS_TYPE":0,"NORAD_CAT_ID":69077,"ELEMENT_SET_NO":999,"REV_AT_EPOCH":1003,"BSTAR":0.000033061916,"MEAN_MOTION_DOT":3.5e-7,"MEAN_MOTION_DDOT":0},{"OBJECT_NAME":"QIANFAN-132","OBJECT_ID":"2026-104F","EPOCH":"2026-07-23T06:52:56.152992","CLASSIFICATION_TYPE":"U","MEAN_MOTION":13.51022185,"ECCENTRICITY":0.00018435,"INCLINATION":88.9903,"RA_OF_ASC_NODE":337.8312,"ARG_OF_PERICENTER":104.7941,"MEAN_ANOMALY":255.3414,"EPHEMERIS_TYPE":0,"NORAD_CAT_ID":69078,"ELEMENT_SET_NO":999,"REV_AT_EPOCH":1000,"BSTAR":0.00011608076,"MEAN_MOTION_DOT":8.7e-7,"MEAN_MOTION_DDOT":0},{"OBJECT_NAME":"QIANFAN-133","OBJECT_ID":"2026-104G","EPOCH":"2026-07-23T07:43:14.320992","CLASSIFICATION_TYPE":"U","MEAN_MOTION":13.57839295,"ECCENTRICITY":0.00089125,"INCLINATION":88.9905,"RA_OF_ASC_NODE":337.7823,"ARG_OF_PERICENTER":344.9078,"MEAN_ANOMALY":15.181,"EPHEMERIS_TYPE":0,"NORAD_CAT_ID":69079,"ELEMENT_SET_NO":999,"REV_AT_EPOCH":1002,"BSTAR":0.00012280942,"MEAN_MOTION_DOT":0.00000101,"MEAN_MOTION_DDOT":0},{"OBJECT_NAME":"QIANFAN-134","OBJECT_ID":"2026-104H","EPOCH":"2026-07-22T19:21:16.062624","CLASSIFICATION_TYPE":"U","MEAN_MOTION":13.54308598,"ECCENTRICITY":0.00112553,"INCLINATION":88.9889,"RA_OF_ASC_NODE":337.847,"ARG_OF_PERICENTER":340.6341,"MEAN_ANOMALY":19.4383,"EPHEMERIS_TYPE":0,"NORAD_CAT_ID":69080,"ELEMENT_SET_NO":999,"REV_AT_EPOCH":995,"BSTAR":0.000054054549,"MEAN_MOTION_DOT":4.9e-7,"MEAN_MOTION_DDOT":0},{"OBJECT_NAME":"QIANFAN-135","OBJECT_ID":"2026-104J","EPOCH":"2026-07-23T07:16:36.219936","CLASSIFICATION_TYPE":"U","MEAN_MOTION":13.51022827,"ECCENTRICITY":0.00077535,"INCLINATION":88.9904,"RA_OF_ASC_NODE":337.796,"ARG_OF_PERICENTER":350.7106,"MEAN_ANOMALY":9.39,"EPHEMERIS_TYPE":0,"NORAD_CAT_ID":69081,"ELEMENT_SET_NO":999,"REV_AT_EPOCH":1002,"BSTAR":0.00002311878,"MEAN_MOTION_DOT":2.7e-7,"MEAN_MOTION_DDOT":0},{"OBJECT_NAME":"QIANFAN-136","OBJECT_ID":"2026-104K","EPOCH":"2026-07-22T20:41:35.484000","CLASSIFICATION_TYPE":"U","MEAN_MOTION":13.50949472,"ECCENTRICITY":0.001111,"INCLINATION":88.9896,"RA_OF_ASC_NODE":337.8418,"ARG_OF_PERICENTER":352.253,"MEAN_ANOMALY":7.8448,"EPHEMERIS_TYPE":0,"NORAD_CAT_ID":69082,"ELEMENT_SET_NO":999,"REV_AT_EPOCH":996,"BSTAR":0.000033814452,"MEAN_MOTION_DOT":3.4e-7,"MEAN_MOTION_DDOT":0},{"OBJECT_NAME":"QIANFAN-137","OBJECT_ID":"2026-104L","EPOCH":"2026-07-23T06:22:40.466496","CLASSIFICATION_TYPE":"U","MEAN_MOTION":13.57833887,"ECCENTRICITY":0.00098728,"INCLINATION":88.9912,"RA_OF_ASC_NODE":337.681,"ARG_OF_PERICENTER":356.4324,"MEAN_ANOMALY":3.6759,"EPHEMERIS_TYPE":0,"NORAD_CAT_ID":69083,"ELEMENT_SET_NO":999,"REV_AT_EPOCH":1008,"BSTAR":0.000099513317,"MEAN_MOTION_DOT":8.4e-7,"MEAN_MOTION_DDOT":0},{"OBJECT_NAME":"QIANFAN-138","OBJECT_ID":"2026-104M","EPOCH":"2026-07-23T06:11:25.444032","CLASSIFICATION_TYPE":"U","MEAN_MOTION":13.51015831,"ECCENTRICITY":0.00016801,"INCLINATION":88.99,"RA_OF_ASC_NODE":337.8061,"ARG_OF_PERICENTER":94.2372,"MEAN_ANOMALY":265.8971,"EPHEMERIS_TYPE":0,"NORAD_CAT_ID":69084,"ELEMENT_SET_NO":999,"REV_AT_EPOCH":1001,"BSTAR":0.000045300199,"MEAN_MOTION_DOT":4.1e-7,"MEAN_MOTION_DDOT":0},{"OBJECT_NAME":"QIANFAN-139","OBJECT_ID":"2026-104N","EPOCH":"2026-07-22T13:53:15.061056","CLASSIFICATION_TYPE":"U","MEAN_MOTION":13.49476581,"ECCENTRICITY":0.00078905,"INCLINATION":88.9898,"RA_OF_ASC_NODE":337.8563,"ARG_OF_PERICENTER":341.3969,"MEAN_ANOMALY":18.6892,"EPHEMERIS_TYPE":0,"NORAD_CAT_ID":69085,"ELEMENT_SET_NO":999,"REV_AT_EPOCH":993,"BSTAR":-3.4420205,"MEAN_MOTION_DOT":-0.02034099,"MEAN_MOTION_DDOT":0},{"OBJECT_NAME":"QIANFAN-140","OBJECT_ID":"2026-104P","EPOCH":"2026-07-23T06:05:34.891584","CLASSIFICATION_TYPE":"U","MEAN_MOTION":13.51024759,"ECCENTRICITY":0.00016618,"INCLINATION":88.9903,"RA_OF_ASC_NODE":337.7902,"ARG_OF_PERICENTER":89.845,"MEAN_ANOMALY":270.2892,"EPHEMERIS_TYPE":0,"NORAD_CAT_ID":69086,"ELEMENT_SET_NO":999,"REV_AT_EPOCH":1002,"BSTAR":0.000044871872,"MEAN_MOTION_DOT":4.1e-7,"MEAN_MOTION_DDOT":0},{"OBJECT_NAME":"QIANFAN-141","OBJECT_ID":"2026-104Q","EPOCH":"2026-07-22T21:37:18.808896","CLASSIFICATION_TYPE":"U","MEAN_MOTION":13.55525402,"ECCENTRICITY":0.00077544,"INCLINATION":88.9898,"RA_OF_ASC_NODE":337.802,"ARG_OF_PERICENTER":353.3264,"MEAN_ANOMALY":6.7785,"EPHEMERIS_TYPE":0,"NORAD_CAT_ID":69087,"ELEMENT_SET_NO":999,"REV_AT_EPOCH":999,"BSTAR":0.00001540674,"MEAN_MOTION_DOT":2.3e-7,"MEAN_MOTION_DDOT":0},{"OBJECT_NAME":"QIANFAN-142","OBJECT_ID":"2026-104R","EPOCH":"2026-07-23T06:29:13.102656","CLASSIFICATION_TYPE":"U","MEAN_MOTION":13.51023876,"ECCENTRICITY":0.00083181,"INCLINATION":88.9898,"RA_OF_ASC_NODE":337.7549,"ARG_OF_PERICENTER":347.1626,"MEAN_ANOMALY":12.9312,"EPHEMERIS_TYPE":0,"NORAD_CAT_ID":69088,"ELEMENT_SET_NO":999,"REV_AT_EPOCH":1004,"BSTAR":0.000024364802,"MEAN_MOTION_DOT":2.8e-7,"MEAN_MOTION_DDOT":0},{"OBJECT_NAME":"QIANFAN-143","OBJECT_ID":"2026-104S","EPOCH":"2026-07-22T09:23:14.881344","CLASSIFICATION_TYPE":"U","MEAN_MOTION":13.57520307,"ECCENTRICITY":0.00091572,"INCLINATION":88.9908,"RA_OF_ASC_NODE":337.8481,"ARG_OF_PERICENTER":344.2099,"MEAN_ANOMALY":15.8769,"EPHEMERIS_TYPE":0,"NORAD_CAT_ID":69089,"ELEMENT_SET_NO":999,"REV_AT_EPOCH":992,"BSTAR":0.00011291294,"MEAN_MOTION_DOT":9.3e-7,"MEAN_MOTION_DDOT":0},{"OBJECT_NAME":"QIANFAN-144","OBJECT_ID":"2026-104T","EPOCH":"2026-07-23T06:35:12.239808","CLASSIFICATION_TYPE":"U","MEAN_MOTION":13.51021327,"ECCENTRICITY":0.00016687,"INCLINATION":88.9907,"RA_OF_ASC_NODE":337.7738,"ARG_OF_PERICENTER":100.2946,"MEAN_ANOMALY":259.8393,"EPHEMERIS_TYPE":0,"NORAD_CAT_ID":69090,"ELEMENT_SET_NO":999,"REV_AT_EPOCH":1003,"BSTAR":0.00011601193,"MEAN_MOTION_DOT":8.7e-7,"MEAN_MOTION_DDOT":0}]}
